{
 "generated_at": "2026-07-21T07:32:50Z",
 "sources": [
  {
   "name": "CelesTrak",
   "url": "https://celestrak.org/NORAD/elements/",
   "license": "frei verfügbar; Attribution. Ursprünglich USSPACECOM/Space-Track."
  },
  {
   "name": "GCAT (J. McDowell, planet4589.org)",
   "url": "https://planet4589.org/space/gcat/",
   "license": "CC-BY 4.0"
  }
 ],
 "satellites": [
  {
   "norad": 60541,
   "name": "UMBRA-09",
   "intl": "2024-149CB",
   "group": "sar",
   "gcat": {
    "class": "B",
    "category": "IMG-R",
    "owner": "UMBRA",
    "state": "US"
   },
   "omm": {
    "OBJECT_NAME": "UMBRA-09",
    "OBJECT_ID": "2024-149CB",
    "EPOCH": "2026-07-20T22:29:43.519200",
    "MEAN_MOTION": 15.18956657,
    "ECCENTRICITY": 0.00021927,
    "INCLINATION": 97.6961,
    "RA_OF_ASC_NODE": 289.7434,
    "ARG_OF_PERICENTER": 190.7346,
    "MEAN_ANOMALY": 169.3841,
    "EPHEMERIS_TYPE": 0,
    "CLASSIFICATION_TYPE": "U",
    "NORAD_CAT_ID": 60541,
    "ELEMENT_SET_NO": 999,
    "REV_AT_EPOCH": 10584,
    "BSTAR": 0.00055942021,
    "MEAN_MOTION_DOT": 0.0001163,
    "MEAN_MOTION_DDOT": 0
   }
  },
  {
   "norad": 60547,
   "name": "UMBRA-10",
   "intl": "2024-149CH",
   "group": "sar",
   "gcat": {
    "class": "B",
    "category": "IMG-R",
    "owner": "UMBRA",
    "state": "US"
   },
   "omm": {
    "OBJECT_NAME": "UMBRA-10",
    "OBJECT_ID": "2024-149CH",
    "EPOCH": "2026-07-20T22:29:04.609824",
    "MEAN_MOTION": 15.18953069,
    "ECCENTRICITY": 0.00020049,
    "INCLINATION": 97.6966,
    "RA_OF_ASC_NODE": 289.7735,
    "ARG_OF_PERICENTER": 157.4224,
    "MEAN_ANOMALY": 202.7098,
    "EPHEMERIS_TYPE": 0,
    "CLASSIFICATION_TYPE": "U",
    "NORAD_CAT_ID": 60547,
    "ELEMENT_SET_NO": 999,
    "REV_AT_EPOCH": 10585,
    "BSTAR": 0.00055799326,
    "MEAN_MOTION_DOT": 0.00011599,
    "MEAN_MOTION_DDOT": 0
   }
  },
  {
   "norad": 66748,
   "name": "UMBRA-11",
   "intl": "2025-276CL",
   "group": "sar",
   "gcat": {
    "class": "B",
    "category": "IMG-R",
    "owner": "UMBRA",
    "state": "US"
   },
   "omm": {
    "OBJECT_NAME": "UMBRA-11",
    "OBJECT_ID": "2025-276CL",
    "EPOCH": "2026-07-20T22:20:34.115424",
    "MEAN_MOTION": 15.27919533,
    "ECCENTRICITY": 0.00032129,
    "INCLINATION": 97.4178,
    "RA_OF_ASC_NODE": 276.38,
    "ARG_OF_PERICENTER": 170.1229,
    "MEAN_ANOMALY": 190.0074,
    "EPHEMERIS_TYPE": 0,
    "CLASSIFICATION_TYPE": "U",
    "NORAD_CAT_ID": 66748,
    "ELEMENT_SET_NO": 999,
    "REV_AT_EPOCH": 3564,
    "BSTAR": 0.00055849924,
    "MEAN_MOTION_DOT": 0.00015161,
    "MEAN_MOTION_DDOT": 0
   }
  },
  {
   "norad": 67371,
   "name": "UMBRA-12",
   "intl": "2026-004J",
   "group": "sar",
   "gcat": {
    "class": "B",
    "category": "IMG-R",
    "owner": "UMBRA",
    "state": "US"
   },
   "omm": {
    "OBJECT_NAME": "UMBRA-12",
    "OBJECT_ID": "2026-004J",
    "EPOCH": "2026-07-20T10:17:11.161824",
    "MEAN_MOTION": 14.89557569,
    "ECCENTRICITY": 0.00070475,
    "INCLINATION": 97.8032,
    "RA_OF_ASC_NODE": 199.7446,
    "ARG_OF_PERICENTER": 38.861,
    "MEAN_ANOMALY": 321.3113,
    "EPHEMERIS_TYPE": 0,
    "CLASSIFICATION_TYPE": "U",
    "NORAD_CAT_ID": 67371,
    "ELEMENT_SET_NO": 999,
    "REV_AT_EPOCH": 2825,
    "BSTAR": 0.00025342646,
    "MEAN_MOTION_DOT": 0.00002363,
    "MEAN_MOTION_DDOT": 0
   }
  },
  {
   "norad": 39160,
   "name": "VNREDSAT 1",
   "intl": "2013-021B",
   "group": "resource",
   "gcat": {
    "class": "C",
    "category": "IMG",
    "owner": "VAST",
    "state": "VN"
   },
   "omm": {
    "OBJECT_NAME": "VNREDSAT 1",
    "OBJECT_ID": "2013-021B",
    "EPOCH": "2026-07-20T23:15:16.225920",
    "MEAN_MOTION": 14.64886352,
    "ECCENTRICITY": 0.00015443,
    "INCLINATION": 97.9057,
    "RA_OF_ASC_NODE": 254.0858,
    "ARG_OF_PERICENTER": 81.9613,
    "MEAN_ANOMALY": 278.1765,
    "EPHEMERIS_TYPE": 0,
    "CLASSIFICATION_TYPE": "U",
    "NORAD_CAT_ID": 39160,
    "ELEMENT_SET_NO": 999,
    "REV_AT_EPOCH": 70523,
    "BSTAR": 0.000019710687,
    "MEAN_MOTION_DOT": 6e-7,
    "MEAN_MOTION_DDOT": 0
   }
  },
  {
   "norad": 32060,
   "name": "WORLDVIEW-1 (WV-1)",
   "intl": "2007-041A",
   "group": "resource",
   "gcat": {
    "class": "B",
    "category": "IMG",
    "owner": "DGLO",
    "state": "US"
   },
   "omm": {
    "OBJECT_NAME": "WORLDVIEW-1 (WV-1)",
    "OBJECT_ID": "2007-041A",
    "EPOCH": "2026-07-20T21:35:25.441728",
    "MEAN_MOTION": 15.24596982,
    "ECCENTRICITY": 0.0002091,
    "INCLINATION": 97.3904,
    "RA_OF_ASC_NODE": 321.1729,
    "ARG_OF_PERICENTER": 183.2525,
    "MEAN_ANOMALY": 176.8699,
    "EPHEMERIS_TYPE": 0,
    "CLASSIFICATION_TYPE": "U",
    "NORAD_CAT_ID": 32060,
    "ELEMENT_SET_NO": 999,
    "REV_AT_EPOCH": 4801,
    "BSTAR": 0.000166017,
    "MEAN_MOTION_DOT": 0.00004021,
    "MEAN_MOTION_DDOT": 0
   }
  },
  {
   "norad": 35946,
   "name": "WORLDVIEW-2 (WV-2)",
   "intl": "2009-055A",
   "group": "resource",
   "gcat": {
    "class": "B",
    "category": "IMG",
    "owner": "DGLO",
    "state": "US"
   },
   "omm": {
    "OBJECT_NAME": "WORLDVIEW-2 (WV-2)",
    "OBJECT_ID": "2009-055A",
    "EPOCH": "2026-07-20T21:54:37.177056",
    "MEAN_MOTION": 14.37908005,
    "ECCENTRICITY": 0.00054921,
    "INCLINATION": 98.4751,
    "RA_OF_ASC_NODE": 274.9033,
    "ARG_OF_PERICENTER": 116.2687,
    "MEAN_ANOMALY": 243.9065,
    "EPHEMERIS_TYPE": 0,
    "CLASSIFICATION_TYPE": "U",
    "NORAD_CAT_ID": 35946,
    "ELEMENT_SET_NO": 999,
    "REV_AT_EPOCH": 88049,
    "BSTAR": 0.00003344486,
    "MEAN_MOTION_DOT": 5.7e-7,
    "MEAN_MOTION_DDOT": 0
   }
  },
  {
   "norad": 40115,
   "name": "WORLDVIEW-3 (WV-3)",
   "intl": "2014-048A",
   "group": "resource",
   "gcat": {
    "class": "B",
    "category": "IMG",
    "owner": "DGLO",
    "state": "US"
   },
   "omm": {
    "OBJECT_NAME": "WORLDVIEW-3 (WV-3)",
    "OBJECT_ID": "2014-048A",
    "EPOCH": "2026-07-20T22:11:01.213440",
    "MEAN_MOTION": 14.85069654,
    "ECCENTRICITY": 0.00017153,
    "INCLINATION": 97.8551,
    "RA_OF_ASC_NODE": 276.2898,
    "ARG_OF_PERICENTER": 147.4126,
    "MEAN_ANOMALY": 212.7195,
    "EPHEMERIS_TYPE": 0,
    "CLASSIFICATION_TYPE": "U",
    "NORAD_CAT_ID": 40115,
    "ELEMENT_SET_NO": 999,
    "REV_AT_EPOCH": 64691,
    "BSTAR": 0.000062400673,
    "MEAN_MOTION_DOT": 0.0000048,
    "MEAN_MOTION_DDOT": 0
   }
  },
  {
   "norad": 36834,
   "name": "YAOGAN-10",
   "intl": "2010-038A",
   "group": "resource",
   "gcat": {
    "class": null,
    "category": null,
    "owner": null,
    "state": null
   },
   "omm": {
    "OBJECT_NAME": "YAOGAN-10",
    "OBJECT_ID": "2010-038A",
    "EPOCH": "2026-07-20T23:17:55.513824",
    "MEAN_MOTION": 14.85439572,
    "ECCENTRICITY": 0.00015975,
    "INCLINATION": 97.8971,
    "RA_OF_ASC_NODE": 225.1059,
    "ARG_OF_PERICENTER": 85.3555,
    "MEAN_ANOMALY": 4.4706,
    "EPHEMERIS_TYPE": 0,
    "CLASSIFICATION_TYPE": "U",
    "NORAD_CAT_ID": 36834,
    "ELEMENT_SET_NO": 999,
    "REV_AT_EPOCH": 86222,
    "BSTAR": 0.00013160543,
    "MEAN_MOTION_DOT": 0.0000108,
    "MEAN_MOTION_DDOT": 0
   }
  },
  {
   "norad": 40143,
   "name": "YAOGAN-21",
   "intl": "2014-053A",
   "group": "resource",
   "gcat": {
    "class": "D",
    "category": "IMG",
    "owner": "ZZB",
    "state": "CN"
   },
   "omm": {
    "OBJECT_NAME": "YAOGAN-21",
    "OBJECT_ID": "2014-053A",
    "EPOCH": "2026-07-20T22:03:41.474592",
    "MEAN_MOTION": 15.2680314,
    "ECCENTRICITY": 0.00069981,
    "INCLINATION": 97.1458,
    "RA_OF_ASC_NODE": 240.7133,
    "ARG_OF_PERICENTER": 347.4944,
    "MEAN_ANOMALY": 12.6121,
    "EPHEMERIS_TYPE": 0,
    "CLASSIFICATION_TYPE": "U",
    "NORAD_CAT_ID": 40143,
    "ELEMENT_SET_NO": 999,
    "REV_AT_EPOCH": 66010,
    "BSTAR": 0.00014615379,
    "MEAN_MOTION_DOT": 0.00003782,
    "MEAN_MOTION_DDOT": 0
   }
  }
 ]
}
