WORLDVIEW-1 (WV-1)      
1 32060U 07041A   26201.89960002  .00004021  00000+0  16602-3 0  9992
2 32060  97.3904 321.1729 0002091 183.2525 176.8699 15.24596982 48018
WORLDVIEW-2 (WV-2)      
1 35946U 09055A   26201.91293029  .00000057  00000+0  33445-4 0  9996
2 35946  98.4751 274.9033 0005492 116.2687 243.9065 14.37908005880497
YAOGAN-10               
1 36834U 10038A   26201.97078141  .00001080  00000+0  13161-3 0  9997
2 36834  97.8971 225.1059 0001597  85.3555   4.4706 14.85439572862223
VNREDSAT 1              
1 39160U 13021B   26201.96893780  .00000060  00000+0  19711-4 0  9995
2 39160  97.9057 254.0858 0001544  81.9613 278.1765 14.64886352705232
WORLDVIEW-3 (WV-3)      
1 40115U 14048A   26201.92431960  .00000480  00000+0  62401-4 0  9991
2 40115  97.8551 276.2898 0001715 147.4126 212.7195 14.85069654646910
YAOGAN-21               
1 40143U 14053A   26201.91923003  .00003782  00000+0  14615-3 0  9992
2 40143  97.1458 240.7133 0006998 347.4944  12.6121 15.26803140660101
UMBRA-09                
1 60541U 24149CB  26201.93730925  .00011630  00000+0  55942-3 0  9993
2 60541  97.6961 289.7434 0002192 190.7346 169.3841 15.18956657105840
UMBRA-10                
1 60547U 24149CH  26201.93685891  .00011599  00000+0  55799-3 0  9994
2 60547  97.6966 289.7735 0002004 157.4224 202.7098 15.18953069105853
UMBRA-11                
1 66748U 25276CL  26201.93095041  .00015161  00000+0  55850-3 0  9994
2 66748  97.4178 276.3800 0003212 170.1229 190.0074 15.27919533 35649
UMBRA-12                
1 67371U 26004J   26201.42860141  .00002363  00000+0  25343-3 0  9996
2 67371  97.8032 199.7446 0007047  38.8610 321.3113 14.89557569 28259
